COSMOS 1953             
1 19210U 88050A   15342.16262074  .00000647  00000-0  44317-4 0  9997
2 19210  82.5182 213.1045 0013921   6.5470 353.5935 15.04350573494064
SL-8 R/B                
1 19257U 88053B   15342.06590766  .00000248  00000-0  91790-4 0  9996
2 19257  74.0472 160.6832 0020684 192.5035 305.8429 14.37268950438721
COSMOS 1975             
1 19573U 88093A   15341.60209718  .00001907  00000-0  13856-3 0  9993
2 19573  82.5194 164.6253 0015681  40.2126 320.0256 15.03226859476016
SL-14 R/B               
1 19574U 88093B   15342.49940795  .00000243  00000-0  26818-4 0  9994
2 19574  82.5314 305.4831 0022494 148.2197 351.2995 14.83088235466932
SL-16 R/B               
1 19650U 88102B   15341.53856099  .00000261  00000-0  15729-3 0  9995
2 19650  70.9994 107.6462 0015966 305.6945  54.2691 14.15731986397063
INTERCOSMOS 24          
1 20261U 89080A   15342.51352827  .00000589  00000-0  17747-3 0  9995
2 20261  82.5935  10.5131 1204394 300.3676  48.3671 12.55660716196097
SL-14 R/B               
1 20262U 89080C   15342.29912659  .00000132  00000-0  30085-4 0  9991
2 20262  82.5959  52.7373 1238413  86.0926 288.0484 12.48761341192218
DELTA 1 R/B             
1 20323U 89089B   15341.51810197  .00000181  00000-0  56122-4 0  9990
2 20323  97.0723   6.4170 0072841  36.5171 324.0961 14.48060190374016
DELTA 2 R/B(1)          
1 20453U 90008B   15342.17186273  .00003318  00000-0  19630-3 0  9998
2 20453  35.6272 257.1927 0300516 223.6450 134.0130 14.80348783365520
COSMOS 2058             
1 20465U 90010A   15342.19019202  .00001165  00000-0  99113-4 0  9996
2 20465  82.4915  63.1791 0016046  15.6414 344.5300 14.96873824401997
SL-14 R/B               
1 20466U 90010B   15342.53602789  .00000216  00000-0  24693-4 0  9990
2 20466  82.5019 173.4014 0020839  10.9504 349.2159 14.81159290395095
SL-14 R/B               
1 20511U 90018B   15342.03492954  .00000258  00000-0  31107-4 0  9999
2 20511  82.5228 112.9254 0018579 136.6301 273.8815 14.79823239389666
HST                     
1 20580U 90037B   15342.53611954  .00001589  00000-0  89538-4 0  9993
2 20580  28.4702  83.9939 0002661 313.2600 145.9607 15.07954223206144
SL-16 R/B               
1 20625U 90046B   15342.15767410 -.00000230  00000-0 -94713-4 0  9995
2 20625  70.9990 238.1996 0016349 238.3035 228.1453 14.14585252319067
COSMOS 2084             
1 20663U 90055A   15342.34591660  .00001110  00000-0  11980-3 0  9990
2 20663  62.7944 285.7008 0103415  33.0252 327.7243 14.90866837376769
SL-6 R/B(2)             
1 20666U 90055D   15342.14327348  .00000813  00000-0  89029-4 0  9990
2 20666  62.7838 206.8235 0120830  53.9634 307.2584 14.91267874378080
SL-8 R/B                
1 20775U 90078B   15342.47204784  .00007257  00000-0  37859-3 0  9992
2 20775  82.9292 143.2787 0605369 252.7111 100.7007 14.26295792269262
SL-8 R/B                
1 21088U 91006B   15342.40276475  .00000033  00000-0  17656-4 0  9990
2 21088  82.9439  74.1349 0023875  80.0450 325.2165 13.77014497248973
OKEAN-3                 
1 21397U 91039A   15342.04431930  .00001112  00000-0  10717-3 0  9997
2 21397  82.5212 307.4462 0016763 303.4268  56.5348 14.91938998326697
COSMOS 2151             
1 21422U 91042A   15342.23117282  .00000720  00000-0  69431-4 0  9994
2 21422  82.5022  56.3239 0014199   0.0317   0.0900 14.91435796325474
SL-14 R/B               
1 21423U 91042B   15342.10011189  .00000222  00000-0  26539-4 0  9999
2 21423  82.4932 121.9777 0016190 275.5862  84.3504 14.79576217320208
ERS-1                   
1 21574U 91050A   15341.87095921  .00000229  00000-0  90384-4 0  9990
2 21574  98.3902 289.1884 0032967 178.7262 181.4015 14.37416206277529
ARIANE 40 R/B           
1 21610U 91050F   15341.79661231  .00000126  00000-0  53693-4 0  9993
2 21610  98.6838  21.4678 0003686 151.4009 338.3055 14.40678903279855
INTERCOSMOS 25          
1 21819U 91086A   15341.67290892  .00001389  00000-0  26787-3 0  9996
2 21819  82.5550  38.1316 1528017 192.6717 163.1442 12.03910490 45174
SL-14 R/B               
1 21820U 91086B   15341.83459075  .00000325  00000-0  61987-4 0  9997
2 21820  82.5618  87.2134 1578423 359.0943   0.7330 11.93057203 40315
SL-8 R/B                
1 21876U 92008B   15341.01298926 -.00000013  00000-0 -29914-4 0  9999
2 21876  82.9253 172.0407 0035318 150.7518 317.7512 13.75570517194419
SL-8 R/B                
1 21938U 92020B   15342.33098890  .00000037  00000-0  23072-4 0  9999
2 21938  82.9317  53.8804 0027985 307.2884  96.2039 13.75234196186753
SL-16 R/B               
1 22220U 92076B   15341.54781889  .00000011  00000-0  29547-4 0  9999
2 22220  70.9980 153.0181 0011444  34.2664  21.5755 14.16382432191810
SL-16 R/B               
1 22285U 92093B   15342.46042633 -.00000287  00000-0 -12360-3 0  9999
2 22285  71.0220 300.1361 0006790 261.7796  98.2556 14.14983927183787
COSMOS 2228             
1 22286U 92094A   15342.13254206  .00000785  00000-0  84131-4 0  9993
2 22286  82.5202 179.1637 0020976 166.4738 193.7046 14.87234893239681
SL-16 R/B               
1 22566U 93016B   15342.47738992 -.00000168  00000-0 -62231-4 0  9999
2 22566  71.0054 155.4594 0012695 262.0785  97.8896 14.14914335172525
COSMOS 2242             
1 22626U 93024A   15341.34542100  .00000696  00000-0  74288-4 0  9993
2 22626  82.5224 207.5676 0019326 167.8168 192.3521 14.87250089223222
SL-16 R/B               
1 22803U 93059B   15341.58668381 -.00000229  00000-0 -90367-4 0  9994
2 22803  70.9902 344.3928 0016334 162.8567 197.3112 14.16727658149307
ARIANE 40 R/B           
1 22830U 93061H   15342.47216697  .00000051  00000-0  36699-4 0  9994
2 22830  98.8774 334.0739 0011838 111.4428  50.6603 14.31385613158606
COSMOS 2278             
1 23087U 94023A   15341.81256137 -.00000295  00000-0 -13128-3 0  9991
2 23087  71.0538  83.8697 0009951 330.3966 172.5852 14.13693567115722
SL-16 R/B               
1 23088U 94023B   15341.58195156 -.00000214  00000-0 -86452-4 0  9991
2 23088  70.9997  12.3761 0005443 244.7576 115.2983 14.14628336116684
SL-16 R/B               
1 23343U 94074B   15342.14032713  .00000195  00000-0  35559-4 0  9991
2 23343  98.2098   0.6185 0008079  63.1788 341.0494 14.76607675134620
SL-16 R/B               
1 23405U 94077B   15341.51673892  .00000252  00000-0  15413-3 0  9992
2 23405  70.9834 307.8801 0000306  76.7642 283.3515 14.15171657 86611
ERS-2                   
1 23560U 95021A   15341.81571621  .00004978  00000-0  25387-3 0  9994
2 23560  98.5073 251.6798 0005059  47.0260 313.1394 15.17299322 90752
ARIANE 40+ R/B          
1 23561U 95021B   15341.56449280  .00000170  00000-0  71882-4 0  9994
2 23561  98.7507 320.0952 0007951 106.4902   1.5290 14.37674938 81121
SL-16 R/B               
1 23705U 95058B   15341.79281627  .00000151  00000-0  10216-3 0  9990
2 23705  71.0209 118.4509 0010521  63.4915 296.7285 14.15074106 38338
SL-16 R/B               
1 24298U 96051B   15341.51219653 -.00000005  00000-0  23808-4 0  9993
2 24298  70.8334 157.7035 0018531 285.3499  74.5573 14.12387603993072
ORBVIEW 2 (SEASTAR)     
1 24883U 97037A   15342.40411260  .00000132  00000-0  63943-4 0  9999
2 24883  98.5124  88.5024 0001645 340.5440  19.5682 14.33259764972147
SL-16 R/B               
1 25400U 98043G   15341.85571971  .00000029  00000-0  29869-4 0  9991
2 25400  98.4106 299.3318 0010785 123.8941 236.3267 14.25360121905676
SL-16 R/B               
1 25407U 98045B   15341.54132806  .00000276  00000-0  16462-3 0  9994
2 25407  71.0100 133.2768 0008858 323.3999  36.6518 14.15730688897259
ISS (ZARYA)             
1 25544U 98067A   15342.40198169  .00013703  00000-0  21044-3 0  9991
2 25544  51.6441 294.6229 0008143 252.2444 252.1867 15.54549538975142
SL-8 R/B                
1 25723U 99022C   15342.17465802  .00011932  00000-0  26008-3 0  9994
2 25723  48.4193 238.0870 0013664 239.9030 280.1668 15.44483962920103
CZ-4B R/B               
1 25732U 99025C   15342.08533502  .00000036  00000-0  39784-4 0  9999
2 25732  98.9566 327.0163 0036522 236.6304 165.4943 14.17590913857707
OKEAN-O                 
1 25860U 99039A   15342.04828942  .00000429  00000-0  69597-4 0  9998
2 25860  98.1184 310.6296 0001813  99.3979 300.8400 14.76220320881638
SL-16 R/B               
1 25861U 99039B   15342.07608150  .00000236  00000-0  39675-4 0  9999
2 25861  98.0263 301.4160 0017077  77.8022  60.6251 14.78236341883463
TERRA                   
1 25994U 99068A   15342.36389639  .00000153  00000-0  44011-4 0  9996
2 25994  98.2091  54.4142 0001225  90.8427 269.2916 14.57126746849582
SL-14 R/B               
1 26874U 01032B   15342.54656795  .00023155  00000-0  17989-3 0  9998
2 26874  82.4621 130.2843 0008473 205.2522 154.8327 15.71568793805457
ENVISAT                 
1 27386U 02009A   15342.40831547  .00000016  00000-0  19134-4 0  9993
2 27386  98.3120  37.4162 0001130  84.2651 275.8666 14.37844956721062
IDEFIX & ARIANE 42P R/B 
1 27422U 02021B   15341.55110809  .00000039  00000-0  31158-4 0  9999
2 27422  98.2429   1.6106 0013529  90.2717 270.0017 14.29221362707028
AQUA                    
1 27424U 02022A   15342.55200789  .00000431  00000-0  10570-3 0  9990
2 27424  98.2135 280.8396 0001829  68.6017  97.4756 14.57112580723210
CZ-4B R/B               
1 27432U 02024C   15342.51979103  .00000020  00000-0  33562-4 0  9991
2 27432  98.9092 304.3562 0050646 167.9593 327.3851 14.13995662700126
MIDORI II (ADEOS-II)    
1 27597U 02056A   15342.51082466  .00000160  00000-0  82270-4 0  9990
2 27597  98.3018 327.0458 0001639 123.9453  28.6603 14.27156026676015
H-2A R/B                
1 27601U 02056E   15342.34087589  .00000118  00000-0  58251-4 0  9993
2 27601  98.4402  56.4029 0072994 144.3802 257.7982 14.31665211678139
CZ-4B R/B               
1 28059U 03049C   15341.57552697  .00000115  00000-0  39790-4 0  9999
2 28059  98.6371 202.8426 0050816 145.2125 245.3700 14.52402350642733
CZ-2C R/B               
1 28222U 04012C   15341.51660499  .00003007  00000-0  19580-3 0  9993
2 28222  97.4478 300.8355 0048616 299.1118 177.2639 15.07728375636530
